[{"OBJECT_NAME":"HAWK-7B","OBJECT_ID":"2023-054R","EPOCH":"2026-03-09T16:32:12.682752","MEAN_MOTION":15.26206341,"ECCENTRICITY":0.00036614,"INCLINATION":97.2859,"RA_OF_ASC_NODE":316.7839,"ARG_OF_PERICENTER":61.5878,"MEAN_ANOMALY":298.573,"EPHEMERIS_TYPE":0,"CLASSIFICATION_TYPE":"U","NORAD_CAT_ID":56193,"ELEMENT_SET_NO":999,"REV_AT_EPOCH":16184,"BSTAR":0.00031010844,"MEAN_MOTION_DOT":7.955e-5,"MEAN_MOTION_DDOT":0},{"OBJECT_NAME":"STARLINK-30772","OBJECT_ID":"2023-162T","EPOCH":"2026-03-09T22:00:01.999584","MEAN_MOTION":15.26763128,"ECCENTRICITY":0.00013659,"INCLINATION":43.0005,"RA_OF_ASC_NODE":131.0178,"ARG_OF_PERICENTER":264.889,"MEAN_ANOMALY":106.181,"EPHEMERIS_TYPE":0,"CLASSIFICATION_TYPE":"U","NORAD_CAT_ID":58135,"ELEMENT_SET_NO":999,"REV_AT_EPOCH":568,"BSTAR":6.5209963e-5,"MEAN_MOTION_DOT":1.491e-5,"MEAN_MOTION_DDOT":0}]
